{
  "type": "FeatureCollection",
  "features": [
    {
      "type": "Feature",
      "properties": {
        "norad_id": 30621,
        "name": "FENGYUN 1C DEB",
        "group": "fengyun-1c-debris",
        "lat": 42.40512954767155,
        "lon": 132.07020571159646,
        "alt_km": 938.5031497505879,
        "timestamp": "2025-12-27T05:29:39.480533+00:00",
        "meta_object_name": "FENGYUN 1C DEB",
        "meta_object_id": "1999-025ANC",
        "meta_epoch": "2025-12-24T07:27:03.076992",
        "meta_mean_motion": 14.03900271,
        "meta_eccentricity": 0.01363988,
        "meta_inclination": 98.6975,
        "meta_ra_of_asc_node": 301.2402,
        "meta_arg_of_pericenter": 274.3159,
        "meta_mean_anomaly": 241.7775,
        "meta_ephemeris_type": 0,
        "meta_classification_type": "U",
        "meta_norad_cat_id": 30621,
        "meta_element_set_no": 999,
        "meta_rev_at_epoch": 95752,
        "meta_bstar": 0.0022507606,
        "meta_mean_motion_dot": 3.816e-05,
        "meta_mean_motion_ddot": 0,
        "tle_line1": "1 30621U 99025ANC 25358.31045228  .00003816  00000+0  22508-2 0  9991",
        "tle_line2": "2 30621  98.6975 301.2402 0136398 274.3159 241.7775 14.03900271957529"
      },
      "geometry": {
        "type": "Point",
        "coordinates": [
          132.07020571159646,
          42.40512954767155
        ]
      }
    },
    {
      "type": "Feature",
      "properties": {
        "norad_id": 30622,
        "name": "FENGYUN 1C DEB",
        "group": "fengyun-1c-debris",
        "lat": 19.42407815973118,
        "lon": 12.656986375778155,
        "alt_km": 749.8496445783685,
        "timestamp": "2025-12-27T05:29:39.480543+00:00",
        "meta_object_name": "FENGYUN 1C DEB",
        "meta_object_id": "1999-025AND",
        "meta_epoch": "2025-12-23T20:00:58.826016",
        "meta_mean_motion": 14.31388151,
        "meta_eccentricity": 0.0072428,
        "meta_inclination": 101.0013,
        "meta_ra_of_asc_node": 12.3003,
        "meta_arg_of_pericenter": 344.4391,
        "meta_mean_anomaly": 189.7638,
        "meta_ephemeris_type": 0,
        "meta_classification_type": "U",
        "meta_norad_cat_id": 30622,
        "meta_element_set_no": 999,
        "meta_rev_at_epoch": 68956,
        "meta_bstar": 0.0030539544,
        "meta_mean_motion_dot": 8.28e-05,
        "meta_mean_motion_ddot": 0,
        "tle_line1": "1 30622U 99025AND 25357.83401419  .00008280  00000+0  30540-2 0  9991",
        "tle_line2": "2 30622 101.0013  12.3003 0072428 344.4391 189.7638 14.31388151689562"
      },
      "geometry": {
        "type": "Point",
        "coordinates": [
          12.656986375778155,
          19.42407815973118
        ]
      }
    },
    {
      "type": "Feature",
      "properties": {
        "norad_id": 30623,
        "name": "FENGYUN 1C DEB",
        "group": "fengyun-1c-debris",
        "lat": -58.375141682418075,
        "lon": -167.50366928850255,
        "alt_km": 1350.5292190951286,
        "timestamp": "2025-12-27T05:29:39.480553+00:00",
        "meta_object_name": "FENGYUN 1C DEB",
        "meta_object_id": "1999-025ANE",
        "meta_epoch": "2025-12-26T23:18:06.344064",
        "meta_mean_motion": 13.29350601,
        "meta_eccentricity": 0.04037019,
        "meta_inclination": 98.823,
        "meta_ra_of_asc_node": 177.6669,
        "meta_arg_of_pericenter": 72.676,
        "meta_mean_anomaly": 77.2412,
        "meta_ephemeris_type": 0,
        "meta_classification_type": "U",
        "meta_norad_cat_id": 30623,
        "meta_element_set_no": 999,
        "meta_rev_at_epoch": 91405,
        "meta_bstar": 0.00065624326,
        "meta_mean_motion_dot": 4.43e-06,
        "meta_mean_motion_ddot": 0,
        "tle_line1": "1 30623U 99025ANE 25360.97090676  .00000443  00000+0  65624-3 0  9995",
        "tle_line2": "2 30623  98.8230 177.6669 0403701  72.6760  77.2412 13.29350601914053"
      },
      "geometry": {
        "type": "Point",
        "coordinates": [
          -167.50366928850255,
          -58.375141682418075
        ]
      }
    },
    {
      "type": "Feature",
      "properties": {
        "norad_id": 30624,
        "name": "FENGYUN 1C DEB",
        "group": "fengyun-1c-debris",
        "lat": 49.44487446281484,
        "lon": -85.14019606829207,
        "alt_km": 681.4962412846289,
        "timestamp": "2025-12-27T05:29:39.480564+00:00",
        "meta_object_name": "FENGYUN 1C DEB",
        "meta_object_id": "1999-025ANF",
        "meta_epoch": "2025-12-26T04:16:43.874112",
        "meta_mean_motion": 14.62901245,
        "meta_eccentricity": 0.00236378,
        "meta_inclination": 98.8856,
        "meta_ra_of_asc_node": 83.1957,
        "meta_arg_of_pericenter": 231.0937,
        "meta_mean_anomaly": 128.8155,
        "meta_ephemeris_type": 0,
        "meta_classification_type": "U",
        "meta_norad_cat_id": 30624,
        "meta_element_set_no": 999,
        "meta_rev_at_epoch": 97692,
        "meta_bstar": 0.0045630657,
        "meta_mean_motion_dot": 0.00023454,
        "meta_mean_motion_ddot": 0,
        "tle_line1": "1 30624U 99025ANF 25360.17828558  .00023454  00000+0  45631-2 0  9998",
        "tle_line2": "2 30624  98.8856  83.1957 0023637 231.0937 128.8155 14.62901245976927"
      },
      "geometry": {
        "type": "Point",
        "coordinates": [
          -85.14019606829207,
          49.44487446281484
        ]
      }
    },
    {
      "type": "Feature",
      "properties": {
        "norad_id": 30625,
        "name": "FENGYUN 1C DEB",
        "group": "fengyun-1c-debris",
        "lat": 71.96570318233792,
        "lon": -71.0286313672576,
        "alt_km": 779.1850251538781,
        "timestamp": "2025-12-27T05:29:39.480574+00:00",
        "meta_object_name": "FENGYUN 1C DEB",
        "meta_object_id": "1999-025ANG",
        "meta_epoch": "2025-12-26T20:49:17.756832",
        "meta_mean_motion": 14.41869406,
        "meta_eccentricity": 0.00476583,
        "meta_inclination": 98.9278,
        "meta_ra_of_asc_node": 317.463,
        "meta_arg_of_pericenter": 260.4116,
        "meta_mean_anomaly": 99.1685,
        "meta_ephemeris_type": 0,
        "meta_classification_type": "U",
        "meta_norad_cat_id": 30625,
        "meta_element_set_no": 999,
        "meta_rev_at_epoch": 96896,
        "meta_bstar": 0.0042408702,
        "meta_mean_motion_dot": 0.00014044,
        "meta_mean_motion_ddot": 0,
        "tle_line1": "1 30625U 99025ANG 25360.86756663  .00014044  00000+0  42409-2 0  9997",
        "tle_line2": "2 30625  98.9278 317.4630 0047658 260.4116  99.1685 14.41869406968964"
      },
      "geometry": {
        "type": "Point",
        "coordinates": [
          -71.0286313672576,
          71.96570318233792
        ]
      }
    },
    {
      "type": "Feature",
      "properties": {
        "norad_id": 30628,
        "name": "FENGYUN 1C DEB",
        "group": "fengyun-1c-debris",
        "lat": 78.33770395456078,
        "lon": 151.89848693786914,
        "alt_km": 658.5296147905447,
        "timestamp": "2025-12-27T05:29:39.480584+00:00",
        "meta_object_name": "FENGYUN 1C DEB",
        "meta_object_id": "1999-025ANK",
        "meta_epoch": "2025-12-26T17:36:49.255488",
        "meta_mean_motion": 14.69456171,
        "meta_eccentricity": 0.00218645,
        "meta_inclination": 99.3394,
        "meta_ra_of_asc_node": 278.4571,
        "meta_arg_of_pericenter": 200.3837,
        "meta_mean_anomaly": 159.6494,
        "meta_ephemeris_type": 0,
        "meta_classification_type": "U",
        "meta_norad_cat_id": 30628,
        "meta_element_set_no": 999,
        "meta_rev_at_epoch": 98676,
        "meta_bstar": 0.0027421358,
        "meta_mean_motion_dot": 0.00016275,
        "meta_mean_motion_ddot": 0,
        "tle_line1": "1 30628U 99025ANK 25360.73390342  .00016275  00000+0  27421-2 0  9999",
        "tle_line2": "2 30628  99.3394 278.4571 0021864 200.3837 159.6494 14.69456171986764"
      },
      "geometry": {
        "type": "Point",
        "coordinates": [
          151.89848693786914,
          78.33770395456078
        ]
      }
    },
    {
      "type": "Feature",
      "properties": {
        "norad_id": 30629,
        "name": "FENGYUN 1C DEB",
        "group": "fengyun-1c-debris",
        "lat": 64.22241482246332,
        "lon": -61.45819948990206,
        "alt_km": 683.7701611632283,
        "timestamp": "2025-12-27T05:29:39.480594+00:00",
        "meta_object_name": "FENGYUN 1C DEB",
        "meta_object_id": "1999-025ANL",
        "meta_epoch": "2025-12-26T18:09:11.537856",
        "meta_mean_motion": 14.59949328,
        "meta_eccentricity": 0.00072861,
        "meta_inclination": 99.2499,
        "meta_ra_of_asc_node": 98.2937,
        "meta_arg_of_pericenter": 167.0133,
        "meta_mean_anomaly": 344.9752,
        "meta_ephemeris_type": 0,
        "meta_classification_type": "U",
        "meta_norad_cat_id": 30629,
        "meta_element_set_no": 999,
        "meta_rev_at_epoch": 98094,
        "meta_bstar": 0.0032380439,
        "meta_mean_motion_dot": 0.00015505,
        "meta_mean_motion_ddot": 0,
        "tle_line1": "1 30629U 99025ANL 25360.75638354  .00015505  00000+0  32380-2 0  9995",
        "tle_line2": "2 30629  99.2499  98.2937 0007286 167.0133 344.9752 14.59949328980944"
      },
      "geometry": {
        "type": "Point",
        "coordinates": [
          -61.45819948990206,
          64.22241482246332
        ]
      }
    }
  ]
}